[
  {"name": "Martin", "address": "Unated States", "city": "Dublin", "zip": 12345, "state": "California", "telephone": "989 588 7667", "dot": 123456, "liability": 200, "cargo": 300, "fleet": 20},
  {"name": "Martin", "address": "Unated States", "city": "Dublin", "zip": 12345, "state": "California", "telephone": "989 588 7667", "dot": 123456, "liability": 200, "cargo": 300, "fleet": 20},
  {"name": "Martin", "address": "Unated States", "city": "Dublin", "zip": 12345, "state": "California", "telephone": "989 588 7667", "dot": 123456, "liability": 200, "cargo": 300, "fleet": 20},
  {"name": "Martin", "address": "Unated States", "city": "Dublin", "zip": 12345, "state": "California", "telephone": "989 588 7667", "dot": 123456, "liability": 200, "cargo": 300, "fleet": 20},
  {"name": "Martin", "address": "Unated States", "city": "Dublin", "zip": 12345, "state": "California", "telephone": "989 588 7667", "dot": 123456, "liability": 200, "cargo": 300, "fleet": 20},
  {"name": "Martin", "address": "Unated States", "city": "Dublin", "zip": 12345, "state": "California", "telephone": "989 588 7667", "dot": 123456, "liability": 200, "cargo": 300, "fleet": 20},
  {"name": "Martin", "address": "Unated States", "city": "Dublin", "zip": 12345, "state": "California", "telephone": "989 588 7667", "dot": 123456, "liability": 200, "cargo": 300, "fleet": 20},
  {"name": "Martin", "address": "Unated States", "city": "Dublin", "zip": 12345, "state": "California", "telephone": "989 588 7667", "dot": 123456, "liability": 200, "cargo": 300, "fleet": 20},
  {"name": "Martin", "address": "Unated States", "city": "Dublin", "zip": 12345, "state": "California", "telephone": "989 588 7667", "dot": 123456, "liability": 200, "cargo": 300, "fleet": 20},
  {"name": "Martin", "address": "Unated States", "city": "Dublin", "zip": 12345, "state": "California", "telephone": "989 588 7667", "dot": 123456, "liability": 200, "cargo": 300, "fleet": 20},
  {"name": "Martin", "address": "Unated States", "city": "Dublin", "zip": 12345, "state": "California", "telephone": "989 588 7667", "dot": 123456, "liability": 200, "cargo": 300, "fleet": 20},
  {"name": "Martin", "address": "Unated States", "city": "Dublin", "zip": 12345, "state": "California", "telephone": "989 588 7667", "dot": 123456, "liability": 200, "cargo": 300, "fleet": 20},
  {"name": "Martin", "address": "Unated States", "city": "Dublin", "zip": 12345, "state": "California", "telephone": "989 588 7667", "dot": 123456, "liability": 200, "cargo": 300, "fleet": 20}
]
