[
  {"name": "Martin", "address": "Unated States", "city": "Dublin", "zip": 12345, "state": "California", "telephone": "989 588 7667", "mc": 123, "broker": "broker name"},
  {"name": "Martin", "address": "Unated States", "city": "Dublin", "zip": 12345, "state": "California", "telephone": "989 588 7667", "mc": 123, "broker": "broker name"},
  {"name": "Martin", "address": "Unated States", "city": "Dublin", "zip": 12345, "state": "California", "telephone": "989 588 7667", "mc": 123, "broker": "broker name"},
  {"name": "Martin", "address": "Unated States", "city": "Dublin", "zip": 12345, "state": "California", "telephone": "989 588 7667", "mc": 123, "broker": "broker name"},
  {"name": "Martin", "address": "Unated States", "city": "Dublin", "zip": 12345, "state": "California", "telephone": "989 588 7667", "mc": 123, "broker": "broker name"},
  {"name": "Martin", "address": "Unated States", "city": "Dublin", "zip": 12345, "state": "California", "telephone": "989 588 7667", "mc": 123, "broker": "broker name"},
  {"name": "Martin", "address": "Unated States", "city": "Dublin", "zip": 12345, "state": "California", "telephone": "989 588 7667", "mc": 123, "broker": "broker name"},
  {"name": "Martin", "address": "Unated States", "city": "Dublin", "zip": 12345, "state": "California", "telephone": "989 588 7667", "mc": 123, "broker": "broker name"},
  {"name": "Martin", "address": "Unated States", "city": "Dublin", "zip": 12345, "state": "California", "telephone": "989 588 7667", "mc": 123, "broker": "broker name"},
  {"name": "Martin", "address": "Unated States", "city": "Dublin", "zip": 12345, "state": "California", "telephone": "989 588 7667", "mc": 123, "broker": "broker name"},
  {"name": "Martin", "address": "Unated States", "city": "Dublin", "zip": 12345, "state": "California", "telephone": "989 588 7667", "mc": 123, "broker": "broker name"},
  {"name": "Martin", "address": "Unated States", "city": "Dublin", "zip": 12345, "state": "California", "telephone": "989 588 7667", "mc": 123, "broker": "broker name"},
  {"name": "Martin", "address": "Unated States", "city": "Dublin", "zip": 12345, "state": "California", "telephone": "989 588 7667", "mc": 123, "broker": "broker name"}
]
